{"type": "FeatureCollection", "features": [ {"type": "Feature", "properties": {"norad_id": 29782, "name": "FENGYUN 1C DEB", "group": "fengyun-1c-debris", "lat": 68.24727059485515, "lon": -114.7595810889174, "alt_km": 846.6476113146082, "timestamp": "2025-12-13T22:39:29.981204+00:00", "meta": {"OBJECT_NAME": "FENGYUN 1C DEB", "OBJECT_ID": "1999-025BY", "EPOCH": "2025-12-13T03:44:15.927360", "MEAN_MOTION": 14.11666289, "ECCENTRICITY": 0.00555203, "INCLINATION": 99.1004, "RA_OF_ASC_NODE": 40.7569, "ARG_OF_PERICENTER": 201.8678, "MEAN_ANOMALY": 224.3473, "EPHEMERIS_TYPE": 0, "CLASSIFICATION_TYPE": "U", "NORAD_CAT_ID": 29782, "ELEMENT_SET_NO": 999, "REV_AT_EPOCH": 96677, "BSTAR": 0.0020719304, "MEAN_MOTION_DOT": 3.78e-05, "MEAN_MOTION_DDOT": 0}, "tle": {"line1": "1 29782U 99025BY  25347.15573990  .00003780  00000+0  20719-2 0  9991", "line2": "2 29782  99.1004  40.7569 0055520 201.8678 224.3473 14.11666289966777"}}, "geometry": {"type": "Point", "coordinates": [-114.7595810889174, 68.24727059485515]}}, {"type": "Feature", "properties": {"norad_id": 29784, "name": "FENGYUN 1C DEB", "group": "fengyun-1c-debris", "lat": -14.289779185794572, "lon": -90.92544665318529, "alt_km": 767.8293242405362, "timestamp": "2025-12-13T22:39:29.981215+00:00", "meta": {"OBJECT_NAME": "FENGYUN 1C DEB", "OBJECT_ID": "1999-025CA", "EPOCH": "2025-12-13T08:10:24.772800", "MEAN_MOTION": 14.30588021, "ECCENTRICITY": 0.00594047, "INCLINATION": 98.945, "RA_OF_ASC_NODE": 266.1549, "ARG_OF_PERICENTER": 295.631, "MEAN_ANOMALY": 182.974, "EPHEMERIS_TYPE": 0, "CLASSIFICATION_TYPE": "U", "NORAD_CAT_ID": 29784, "ELEMENT_SET_NO": 999, "REV_AT_EPOCH": 98368, "BSTAR": 0.00091159646, "MEAN_MOTION_DOT": 2.378e-05, "MEAN_MOTION_DDOT": 0}, "tle": {"line1": "1 29784U 99025CA  25347.34056450  .00002378  00000+0  91160-3 0  9992", "line2": "2 29784  98.9450 266.1549 0059404 295.6310 182.9740 14.30588021983685"}}, "geometry": {"type": "Point", "coordinates": [-90.92544665318529, -14.289779185794572]}}, {"type": "Feature", "properties": {"norad_id": 29786, "name": "FENGYUN 1C DEB", "group": "fengyun-1c-debris", "lat": -10.473595555449196, "lon": -176.50400526693036, "alt_km": 884.5604207916695, "timestamp": "2025-12-13T22:39:29.981226+00:00", "meta": {"OBJECT_NAME": "FENGYUN 1C DEB", "OBJECT_ID": "1999-025CC", "EPOCH": "2025-12-13T06:41:37.154400", "MEAN_MOTION": 14.09085175, "ECCENTRICITY": 0.00769649, "INCLINATION": 98.7358, "RA_OF_ASC_NODE": 4.4799, "ARG_OF_PERICENTER": 301.5108, "MEAN_ANOMALY": 117.3469, "EPHEMERIS_TYPE": 0, "CLASSIFICATION_TYPE": "U", "NORAD_CAT_ID": 29786, "ELEMENT_SET_NO": 999, "REV_AT_EPOCH": 97168, "BSTAR": 0.00031675172, "MEAN_MOTION_DOT": 5.21e-06, "MEAN_MOTION_DDOT": 0}, "tle": {"line1": "1 29786U 99025CC  25347.27890225  .00000521  00000+0  31675-3 0  9995", "line2": "2 29786  98.7358   4.4799 0076964 301.5108 117.3469 14.09085175971689"}}, "geometry": {"type": "Point", "coordinates": [-176.50400526693036, -10.473595555449196]}}, {"type": "Feature", "properties": {"norad_id": 29788, "name": "FENGYUN 1C DEB", "group": "fengyun-1c-debris", "lat": -18.74611756580604, "lon": -123.4376775567244, "alt_km": 780.03736040891, "timestamp": "2025-12-13T22:39:29.981240+00:00", "meta": {"OBJECT_NAME": "FENGYUN 1C DEB", "OBJECT_ID": "1999-025CE", "EPOCH": "2025-12-13T04:59:34.545408", "MEAN_MOTION": 14.25979699, "ECCENTRICITY": 0.00430782, "INCLINATION": 98.7842, "RA_OF_ASC_NODE": 58.8327, "ARG_OF_PERICENTER": 187.8322, "MEAN_ANOMALY": 194.4671, "EPHEMERIS_TYPE": 0, "CLASSIFICATION_TYPE": "U", "NORAD_CAT_ID": 29788, "ELEMENT_SET_NO": 999, "REV_AT_EPOCH": 97362, "BSTAR": 0.0025338566, "MEAN_MOTION_DOT": 6.063e-05, "MEAN_MOTION_DDOT": 0}, "tle": {"line1": "1 29788U 99025CE  25347.20803872  .00006063  00000+0  25339-2 0  9998", "line2": "2 29788  98.7842  58.8327 0043078 187.8322 194.4671 14.25979699973620"}}, "geometry": {"type": "Point", "coordinates": [-123.4376775567244, -18.74611756580604]}}, {"type": "Feature", "properties": {"norad_id": 29789, "name": "FENGYUN 1C DEB", "group": "fengyun-1c-debris", "lat": 36.15285230312476, "lon": 163.69643814183956, "alt_km": 1163.5898097092859, "timestamp": "2025-12-13T22:39:29.981255+00:00", "meta": {"OBJECT_NAME": "FENGYUN 1C DEB", "OBJECT_ID": "1999-025CF", "EPOCH": "2025-12-12T18:13:20.839872", "MEAN_MOTION": 13.54240447, "ECCENTRICITY": 0.02983278, "INCLINATION": 99.451, "RA_OF_ASC_NODE": 169.5524, "ARG_OF_PERICENTER": 278.7376, "MEAN_ANOMALY": 101.7484, "EPHEMERIS_TYPE": 0, "CLASSIFICATION_TYPE": "U", "NORAD_CAT_ID": 29789, "ELEMENT_SET_NO": 999, "REV_AT_EPOCH": 92988, "BSTAR": 0.0019987716, "MEAN_MOTION_DOT": 1.761e-05, "MEAN_MOTION_DDOT": 0}, "tle": {"line1": "1 29789U 99025CF  25346.75926898  .00001761  00000+0  19988-2 0  9995", "line2": "2 29789  99.4510 169.5524 0298327 278.7376 101.7484 13.54240447929883"}}, "geometry": {"type": "Point", "coordinates": [163.69643814183956, 36.15285230312476]}}, {"type": "Feature", "properties": {"norad_id": 29790, "name": "FENGYUN 1C DEB", "group": "fengyun-1c-debris", "lat": 39.008206460089326, "lon": 169.5331810376965, "alt_km": 734.9074412644095, "timestamp": "2025-12-13T22:39:29.981277+00:00", "meta": {"OBJECT_NAME": "FENGYUN 1C DEB", "OBJECT_ID": "1999-025CG", "EPOCH": "2025-12-13T05:14:15.219744", "MEAN_MOTION": 14.32269947, "ECCENTRICITY": 0.00765234, "INCLINATION": 99.1472, "RA_OF_ASC_NODE": 341.2688, "ARG_OF_PERICENTER": 175.1467, "MEAN_ANOMALY": 185.0474, "EPHEMERIS_TYPE": 0, "CLASSIFICATION_TYPE": "U", "NORAD_CAT_ID": 29790, "ELEMENT_SET_NO": 999, "REV_AT_EPOCH": 98532, "BSTAR": 0.0004074718, "MEAN_MOTION_DOT": 1.087e-05, "MEAN_MOTION_DDOT": 0}, "tle": {"line1": "1 29790U 99025CG  25347.21823171  .00001087  00000+0  40747-3 0  9998", "line2": "2 29790  99.1472 341.2688 0076523 175.1467 185.0474 14.32269947985320"}}, "geometry": {"type": "Point", "coordinates": [169.5331810376965, 39.008206460089326]}}, {"type": "Feature", "properties": {"norad_id": 29791, "name": "FENGYUN 1C DEB", "group": "fengyun-1c-debris", "lat": -3.6470802268022933, "lon": 168.01107069335086, "alt_km": 719.0113869031293, "timestamp": "2025-12-13T22:39:29.981299+00:00", "meta": {"OBJECT_NAME": "FENGYUN 1C DEB", "OBJECT_ID": "1999-025CH", "EPOCH": "2025-12-12T23:02:12.399936", "MEAN_MOTION": 14.58255346, "ECCENTRICITY": 0.00415305, "INCLINATION": 99.0369, "RA_OF_ASC_NODE": 347.5234, "ARG_OF_PERICENTER": 61.3934, "MEAN_ANOMALY": 357.802, "EPHEMERIS_TYPE": 0, "CLASSIFICATION_TYPE": "U", "NORAD_CAT_ID": 29791, "ELEMENT_SET_NO": 999, "REV_AT_EPOCH": 98849, "BSTAR": 0.0022772799, "MEAN_MOTION_DOT": 0.00010606, "MEAN_MOTION_DDOT": 0}, "tle": {"line1": "1 29791U 99025CH  25346.95986574  .00010606  00000+0  22773-2 0  9991", "line2": "2 29791  99.0369 347.5234 0041530  61.3934 357.8020 14.58255346988499"}}, "geometry": {"type": "Point", "coordinates": [168.01107069335086, -3.6470802268022933]}}, {"type": "Feature", "properties": {"norad_id": 29792, "name": "FENGYUN 1C DEB", "group": "fengyun-1c-debris", "lat": 16.28147922023947, "lon": 35.905091059911406, "alt_km": 809.1116777412026, "timestamp": "2025-12-13T22:39:29.981316+00:00", "meta": {"OBJECT_NAME": "FENGYUN 1C DEB", "OBJECT_ID": "1999-025CJ", "EPOCH": "2025-12-13T02:13:08.332320", "MEAN_MOTION": 14.15156211, "ECCENTRICITY": 0.00479865, "INCLINATION": 98.7573, "RA_OF_ASC_NODE": 37.6495, "ARG_OF_PERICENTER": 35.6299, "MEAN_ANOMALY": 324.8062, "EPHEMERIS_TYPE": 0, "CLASSIFICATION_TYPE": "U", "NORAD_CAT_ID": 29792, "ELEMENT_SET_NO": 999, "REV_AT_EPOCH": 96944, "BSTAR": 0.0018300387, "MEAN_MOTION_DOT": 3.55e-05, "MEAN_MOTION_DDOT": 0}, "tle": {"line1": "1 29792U 99025CJ  25347.09245755  .00003550  00000+0  18300-2 0  9998", "line2": "2 29792  98.7573  37.6495 0047986  35.6299 324.8062 14.15156211969446"}}, "geometry": {"type": "Point", "coordinates": [35.905091059911406, 16.28147922023947]}}, {"type": "Feature", "properties": {"norad_id": 29793, "name": "FENGYUN 1C DEB", "group": "fengyun-1c-debris", "lat": -64.68879364971994, "lon": -175.2781798368266, "alt_km": 817.5076651920099, "timestamp": "2025-12-13T22:39:29.981327+00:00", "meta": {"OBJECT_NAME": "FENGYUN 1C DEB", "OBJECT_ID": "1999-025CK", "EPOCH": "2025-12-13T01:17:43.376064", "MEAN_MOTION": 14.01078972, "ECCENTRICITY": 0.01437197, "INCLINATION": 98.3548, "RA_OF_ASC_NODE": 165.804, "ARG_OF_PERICENTER": 337.3286, "MEAN_ANOMALY": 150.5965, "EPHEMERIS_TYPE": 0, "CLASSIFICATION_TYPE": "U", "NORAD_CAT_ID": 29793, "ELEMENT_SET_NO": 999, "REV_AT_EPOCH": 96153, "BSTAR": 0.0014141694, "MEAN_MOTION_DOT": 2.281e-05, "MEAN_MOTION_DDOT": 0}, "tle": {"line1": "1 29793U 99025CK  25347.05397426  .00002281  00000+0  14142-2 0  9998", "line2": "2 29793  98.3548 165.8040 0143719 337.3286 150.5965 14.01078972961534"}}, "geometry": {"type": "Point", "coordinates": [-175.2781798368266, -64.68879364971994]}}, {"type": "Feature", "properties": {"norad_id": 29794, "name": "FENGYUN 1C DEB", "group": "fengyun-1c-debris", "lat": -79.24056414170194, "lon": -164.17295518136638, "alt_km": 925.7656130963524, "timestamp": "2025-12-13T22:39:29.981348+00:00", "meta": {"OBJECT_NAME": "FENGYUN 1C DEB", "OBJECT_ID": "1999-025CL", "EPOCH": "2025-12-12T16:26:24.057024", "MEAN_MOTION": 14.08996817, "ECCENTRICITY": 0.01571054, "INCLINATION": 98.1995, "RA_OF_ASC_NODE": 145.3257, "ARG_OF_PERICENTER": 40.6681, "MEAN_ANOMALY": 334.8807, "EPHEMERIS_TYPE": 0, "CLASSIFICATION_TYPE": "U", "NORAD_CAT_ID": 29794, "ELEMENT_SET_NO": 999, "REV_AT_EPOCH": 96847, "BSTAR": 0.00074979432, "MEAN_MOTION_DOT": 1.417e-05, "MEAN_MOTION_DDOT": 0}, "tle": {"line1": "1 29794U 99025CL  25346.68500066  .00001417  00000+0  74979-3 0  9998", "line2": "2 29794  98.1995 145.3257 0157105  40.6681 334.8807 14.08996817968475"}}, "geometry": {"type": "Point", "coordinates": [-164.17295518136638, -79.24056414170194]}}]}